start=new Date('2023-01-14T00:00:00.000Z').valueOf();
sats=[{"ELEMENT_SET_NO":"999","MEAN_MOTION_DDOT":"0.0000000000000","SEMIMAJOR_AXIS":"6917.877","EPHEMERIS_TYPE":"0","RA_OF_ASC_NODE":"220.7930","ARG_OF_PERICENTER":"46.3882","MEAN_ANOMALY":"313.7305","PERIAPSIS":"538.115","REF_FRAME":"TEME","MEAN_ELEMENT_THEORY":"SGP4","ECCENTRICITY":"0.00023520","TIME_SYSTEM":"UTC","CENTER_NAME":"EARTH","RCS_SIZE":"LARGE","COUNTRY_CODE":"US","LAUNCH_DATE":"2022-07-07","APOAPSIS":"541.369","GP_ID":"222975255","BSTAR":"0.00017039000000","REV_AT_EPOCH":"2909","CLASSIFICATION_TYPE":"U","OBJECT_NAME":"STARLINK-4296","TLE_LINE1":"1 52995U 22076K   23013.77181486  .00002425  00000-0  17039-3 0  9994","OBJECT_TYPE":"PAYLOAD","MEAN_MOTION":"15.08841166","EPOCH":"2023-01-13T18:31:24.803904","FILE":"3743722","DECAY_DATE":null,"SITE":"AFETR","NORAD_CAT_ID":"52995","TLE_LINE2":"2 52995  53.2150 220.7930 0002352  46.3882 313.7305 15.08841166 29096","PERIOD":"95.437","MEAN_MOTION_DOT":"0.00002425","OBJECT_ID":"2022-076K","INCLINATION":"53.2150"},{"ELEMENT_SET_NO":"999","EPHEMERIS_TYPE":"0","MEAN_MOTION_DDOT":"0.0000000000000","SEMIMAJOR_AXIS":"6917.869","RA_OF_ASC_NODE":"220.4895","ARG_OF_PERICENTER":"58.9559","MEAN_ANOMALY":"301.1697","MEAN_ELEMENT_THEORY":"SGP4","PERIAPSIS":"537.868","REF_FRAME":"TEME","ECCENTRICITY":"0.00026960","TIME_SYSTEM":"UTC","CENTER_NAME":"EARTH","RCS_SIZE":"LARGE","COUNTRY_CODE":"US","LAUNCH_DATE":"2022-07-07","APOAPSIS":"541.599","BSTAR":"0.00010175000000","GP_ID":"222974009","OBJECT_NAME":"STARLINK-4295","CLASSIFICATION_TYPE":"U","REV_AT_EPOCH":"2910","TLE_LINE1":"1 52996U 22076L   23013.84174316  .00001331  00000-0  10175-3 0  9996","OBJECT_TYPE":"PAYLOAD","EPOCH":"2023-01-13T20:12:06.609024","MEAN_MOTION":"15.08843875","FILE":"3743722","DECAY_DATE":null,"SITE":"AFETR","NORAD_CAT_ID":"52996","TLE_LINE2":"2 52996  53.2132 220.4895 0002696  58.9559 301.1697 15.08843875 29101","OBJECT_ID":"2022-076L","PERIOD":"95.437","MEAN_MOTION_DOT":"0.00001331","INCLINATION":"53.2132"},{"ECCENTRICITY":"0.00035810","TIME_SYSTEM":"UTC","CENTER_NAME":"EARTH","RCS_SIZE":"MEDIUM","ELEMENT_SET_NO":"999","EPHEMERIS_TYPE":"0","SEMIMAJOR_AXIS":"6914.115","MEAN_MOTION_DDOT":"0.0000000000000","RA_OF_ASC_NODE":"222.8372","MEAN_ANOMALY":"265.8593","ARG_OF_PERICENTER":"94.2808","MEAN_ELEMENT_THEORY":"SGP4","REF_FRAME":"TEME","PERIAPSIS":"533.504","OBJECT_TYPE":"PAYLOAD","EPOCH":"2023-01-13T06:49:45.382656","MEAN_MOTION":"15.10072775","FILE":"3743417","DECAY_DATE":null,"SITE":"AFETR","NORAD_CAT_ID":"52997","PERIOD":"95.360","TLE_LINE2":"2 52997  53.2139 222.8372 0003581  94.2808 265.8593 15.10072775 29027","MEAN_MOTION_DOT":"0.00010751","OBJECT_ID":"2022-076M","INCLINATION":"53.2139","LAUNCH_DATE":"2022-07-07","COUNTRY_CODE":"US","APOAPSIS":"538.456","BSTAR":"0.00066966000000","GP_ID":"222943215","CLASSIFICATION_TYPE":"U","OBJECT_NAME":"STARLINK-4301","REV_AT_EPOCH":"2902","TLE_LINE1":"1 52997U 22076M   23013.28455304  .00010751  00000-0  66966-3 0  9999"},{"RCS_SIZE":"LARGE","CENTER_NAME":"EARTH","TIME_SYSTEM":"UTC","ECCENTRICITY":"0.00020270","REF_FRAME":"TEME","PERIAPSIS":"538.329","MEAN_ELEMENT_THEORY":"SGP4","ARG_OF_PERICENTER":"59.1981","MEAN_ANOMALY":"300.9210","RA_OF_ASC_NODE":"220.5155","MEAN_MOTION_DDOT":"0.0000000000000","SEMIMAJOR_AXIS":"6917.866","EPHEMERIS_TYPE":"0","ELEMENT_SET_NO":"999","INCLINATION":"53.2126","PERIOD":"95.437","TLE_LINE2":"2 52998  53.2126 220.5155 0002027  59.1981 300.9210 15.08844778 29107","OBJECT_ID":"2022-076N","MEAN_MOTION_DOT":"0.00002047","NORAD_CAT_ID":"52998","SITE":"AFETR","DECAY_DATE":null,"FILE":"3743722","MEAN_MOTION":"15.08844778","EPOCH":"2023-01-13T20:02:53.037312","OBJECT_TYPE":"PAYLOAD","TLE_LINE1":"1 52998U 22076N   23013.83533608  .00002047  00000-0  14669-3 0  9997","OBJECT_NAME":"STARLINK-4254","REV_AT_EPOCH":"2910","CLASSIFICATION_TYPE":"U","GP_ID":"222974509","BSTAR":"0.00014669000000","APOAPSIS":"541.133","LAUNCH_DATE":"2022-07-07","COUNTRY_CODE":"US"},{"TLE_LINE1":"1 52999U 22076P   23013.68718644  .00000199  00000-0  30621-4 0  9999","OBJECT_NAME":"STARLINK-4217","REV_AT_EPOCH":"2908","CLASSIFICATION_TYPE":"U","GP_ID":"222975747","BSTAR":"0.00003062100000","APOAPSIS":"541.107","COUNTRY_CODE":"US","LAUNCH_DATE":"2022-07-07","INCLINATION":"53.2168","TLE_LINE2":"2 52999  53.2168 221.1714 0001887  47.5242 312.5910 15.08821713 29083","OBJECT_ID":"2022-076P","PERIOD":"95.439","MEAN_MOTION_DOT":"0.00000199","NORAD_CAT_ID":"52999","SITE":"AFETR","FILE":"3743722","DECAY_DATE":null,"MEAN_MOTION":"15.08821713","EPOCH":"2023-01-13T16:29:32.908416","OBJECT_TYPE":"PAYLOAD","PERIAPSIS":"538.496","REF_FRAME":"TEME","MEAN_ELEMENT_THEORY":"SGP4","ARG_OF_PERICENTER":"47.5242","MEAN_ANOMALY":"312.5910","RA_OF_ASC_NODE":"221.1714","MEAN_MOTION_DDOT":"0.0000000000000","SEMIMAJOR_AXIS":"6917.936","EPHEMERIS_TYPE":"0","ELEMENT_SET_NO":"999","RCS_SIZE":"LARGE","CENTER_NAME":"EARTH","TIME_SYSTEM":"UTC","ECCENTRICITY":"0.00018870"},{"GP_ID":"222975754","BSTAR":"-0.00015089000000","TLE_LINE1":"1 53000U 22076Q   23013.83439524 -.00002687  00000-0 -15089-3 0  9993","OBJECT_NAME":"STARLINK-4194","CLASSIFICATION_TYPE":"U","REV_AT_EPOCH":"2910","LAUNCH_DATE":"2022-07-07","COUNTRY_CODE":"US","APOAPSIS":"540.875","TLE_LINE2":"2 53000  53.2178 220.5160 0001553  76.5526 283.5639 15.08821984 29101","PERIOD":"95.439","OBJECT_ID":"2022-076Q","MEAN_MOTION_DOT":"-0.00002687","NORAD_CAT_ID":"53000","INCLINATION":"53.2178","MEAN_MOTION":"15.08821984","EPOCH":"2023-01-13T20:01:31.748736","OBJECT_TYPE":"PAYLOAD","SITE":"AFETR","DECAY_DATE":null,"FILE":"3743722","REF_FRAME":"TEME","PERIAPSIS":"538.726","MEAN_ELEMENT_THEORY":"SGP4","MEAN_MOTION_DDOT":"0.0000000000000","SEMIMAJOR_AXIS":"6917.935","EPHEMERIS_TYPE":"0","ELEMENT_SET_NO":"999","MEAN_ANOMALY":"283.5639","ARG_OF_PERICENTER":"76.5526","RA_OF_ASC_NODE":"220.5160","CENTER_NAME":"EARTH","RCS_SIZE":"LARGE","ECCENTRICITY":"0.00015530","TIME_SYSTEM":"UTC"},{"BSTAR":"0.00012926000000","GP_ID":"222974261","TLE_LINE1":"1 53001U 22076R   23013.68350474  .00001770  00000-0  12926-3 0  9990","CLASSIFICATION_TYPE":"U","OBJECT_NAME":"STARLINK-4190","REV_AT_EPOCH":"2908","COUNTRY_CODE":"US","LAUNCH_DATE":"2022-07-07","APOAPSIS":"540.808","PERIOD":"95.438","TLE_LINE2":"2 53001  53.2169 221.1878 0001533  85.1567 274.9600 15.08839370 29081","MEAN_MOTION_DOT":"0.00001770","OBJECT_ID":"2022-076R","NORAD_CAT_ID":"53001","INCLINATION":"53.2169","EPOCH":"2023-01-13T16:24:14.809536","MEAN_MOTION":"15.08839370","OBJECT_TYPE":"PAYLOAD","SITE":"AFETR","DECAY_DATE":null,"FILE":"3743722","MEAN_ELEMENT_THEORY":"SGP4","PERIAPSIS":"538.687","REF_FRAME":"TEME","EPHEMERIS_TYPE":"0","MEAN_MOTION_DDOT":"0.0000000000000","SEMIMAJOR_AXIS":"6917.882","ELEMENT_SET_NO":"999","ARG_OF_PERICENTER":"85.1567","MEAN_ANOMALY":"274.9600","RA_OF_ASC_NODE":"221.1878","CENTER_NAME":"EARTH","RCS_SIZE":"LARGE","ECCENTRICITY":"0.00015330","TIME_SYSTEM":"UTC"},{"TLE_LINE2":"2 53002  53.2139 220.5354 0002592  33.9443 326.1715 15.08839598 29103","PERIOD":"95.438","MEAN_MOTION_DOT":"0.00001907","OBJECT_ID":"2022-076S","NORAD_CAT_ID":"53002","INCLINATION":"53.2139","MEAN_MOTION":"15.08839598","EPOCH":"2023-01-13T19:56:12.564672","OBJECT_TYPE":"PAYLOAD","SITE":"AFETR","FILE":"3743722","DECAY_DATE":null,"GP_ID":"222975008","BSTAR":"0.00013791000000","TLE_LINE1":"1 53002U 22076S   23013.83070098  .00001907  00000-0  13791-3 0  9992","OBJECT_NAME":"STARLINK-4121","CLASSIFICATION_TYPE":"U","REV_AT_EPOCH":"2910","COUNTRY_CODE":"US","LAUNCH_DATE":"2022-07-07","APOAPSIS":"541.540","CENTER_NAME":"EARTH","RCS_SIZE":"LARGE","ECCENTRICITY":"0.00025920","TIME_SYSTEM":"UTC","PERIAPSIS":"537.954","REF_FRAME":"TEME","MEAN_ELEMENT_THEORY":"SGP4","MEAN_MOTION_DDOT":"0.0000000000000","SEMIMAJOR_AXIS":"6917.882","EPHEMERIS_TYPE":"0","ELEMENT_SET_NO":"999","MEAN_ANOMALY":"326.1715","ARG_OF_PERICENTER":"33.9443","RA_OF_ASC_NODE":"220.5354"},{"EPOCH":"2023-01-13T16:13:39.952704","MEAN_MOTION":"15.08819499","OBJECT_TYPE":"PAYLOAD","SITE":"AFETR","DECAY_DATE":null,"FILE":"3743722","OBJECT_ID":"2022-076T","TLE_LINE2":"2 53003  53.2180 221.2215 0002156  62.9826 297.1386 15.08819499 29083","PERIOD":"95.439","MEAN_MOTION_DOT":"0.00002228","NORAD_CAT_ID":"53003","INCLINATION":"53.2180","LAUNCH_DATE":"2022-07-07","COUNTRY_CODE":"US","APOAPSIS":"541.300","BSTAR":"0.00015814000000","GP_ID":"222975256","TLE_LINE1":"1 53003U 22076T   23013.67615686  .00002228  00000-0  15814-3 0  9998","OBJECT_NAME":"STARLINK-4255","CLASSIFICATION_TYPE":"U","REV_AT_EPOCH":"2908","ECCENTRICITY":"0.00021560","TIME_SYSTEM":"UTC","CENTER_NAME":"EARTH","RCS_SIZE":"MEDIUM","EPHEMERIS_TYPE":"0","SEMIMAJOR_AXIS":"6917.943","MEAN_MOTION_DDOT":"0.0000000000000","ELEMENT_SET_NO":"999","MEAN_ANOMALY":"297.1386","ARG_OF_PERICENTER":"62.9826","RA_OF_ASC_NODE":"221.2215","MEAN_ELEMENT_THEORY":"SGP4","REF_FRAME":"TEME","PERIAPSIS":"538.317"},{"LAUNCH_DATE":"2022-07-07","COUNTRY_CODE":"US","APOAPSIS":"540.779","BSTAR":"-0.00003612000000","GP_ID":"222975263","TLE_LINE1":"1 53004U 22076U   23013.88958396 -.00000863  00000-0 -36120-4 0  9999","CLASSIFICATION_TYPE":"U","OBJECT_NAME":"STARLINK-4253","REV_AT_EPOCH":"2911","EPOCH":"2023-01-13T21:21:00.054144","MEAN_MOTION":"15.08826815","OBJECT_TYPE":"PAYLOAD","SITE":"AFETR","FILE":"3743722","DECAY_DATE":null,"OBJECT_ID":"2022-076U","TLE_LINE2":"2 53004  53.2157 220.2547 0001436  59.2772 300.8361 15.08826815 29113","PERIOD":"95.438","MEAN_MOTION_DOT":"-0.00000863","NORAD_CAT_ID":"53004","INCLINATION":"53.2157","EPHEMERIS_TYPE":"0","SEMIMAJOR_AXIS":"6917.921","MEAN_MOTION_DDOT":"0.0000000000000","ELEMENT_SET_NO":"999","MEAN_ANOMALY":"300.8361","ARG_OF_PERICENTER":"59.2772","RA_OF_ASC_NODE":"220.2547","MEAN_ELEMENT_THEORY":"SGP4","PERIAPSIS":"538.792","REF_FRAME":"TEME","ECCENTRICITY":"0.00014360","TIME_SYSTEM":"UTC","CENTER_NAME":"EARTH","RCS_SIZE":"LARGE"}];
